BEIDOU 3 (C01)          
1 36287U 10001A   21003.91868625 -.00000271  00000-0  00000-0 0  9990
2 36287   1.6420  38.8681 0003341 120.1570  55.8696  1.00272857 40210
BEIDOU 5 (C06)          
1 36828U 10036A   21003.86044468 -.00000001  00000-0  00000-0 0  9995
2 36828  54.1676 181.1158 0100686 233.3404 116.4595  1.00253407 38254
BEIDOU 6 (C04)          
1 37210U 10057A   21003.78724782 -.00000102  00000-0  00000-0 0  9991
2 37210   0.8589  49.0277 0006429 192.6986 305.3156  1.00273178 37323
BEIDOU 7 (C07)          
1 37256U 10068A   21003.84905885 -.00000207  00000-0  00000-0 0  9991
2 37256  51.1458 295.9620 0079390 215.5732  13.1541  1.00246526 36847
BEIDOU 8 (C08)          
1 37384U 11013A   21003.56296382 -.00000190  00000-0  00000-0 0  9999
2 37384  59.5549  59.5655 0055721 205.0590 157.5278  1.00300296 35712
BEIDOU 9 (C09)          
1 37763U 11038A   21003.91999190  .00000000  00000-0  00000-0 0  9992
2 37763  54.4503 183.5272 0072837 223.0878 120.5660  1.00253428 34680
BEIDOU 10 (C10)         
1 37948U 11073A   21003.91410109 -.00000145  00000-0  00000-0 0  9995
2 37948  51.2464 295.5648 0071183 216.2891  15.2350  1.00290349 33441
BEIDOU 11 (C05)         
1 38091U 12008A   21003.91068689  .00000066  00000-0  00000-0 0  9997
2 38091   1.9049  70.9235 0003795 234.5847 184.7836  1.00271411 32525
BEIDOU 12 (C11)         
1 38250U 12018A   21003.45406561 -.00000056  00000-0  00000-0 0  9999
2 38250  56.7542  11.0618 0024877 247.5558 301.6752  1.86234311 59210
BEIDOU 13 (C12)         
1 38251U 12018B   21002.29979990 -.00000057  00000-0  00000+0 0  9992
2 38251  56.6776  10.4581 0015859 250.3146 289.4726  1.86232889 59195
BEIDOU 15 (C14)         
1 38775U 12050B   21003.50191554  .00000044  00000-0  00000-0 0  9992
2 38775  55.1376 129.5469 0012507 322.6114 140.5056  1.86232266 56591
BEIDOU 16 (C02)         
1 38953U 12059A   21003.94354774 -.00000165  00000-0  00000-0 0  9997
2 38953   1.5771  84.7586 0009157 255.0769 187.5765  1.00268759 30094
BEIDOU 17 (C31)         
1 40549U 15019A   21003.84534706 -.00000153  00000-0  00000-0 0  9991
2 40549  52.7569 318.8932 0037099 189.6454 350.5700  1.00301099 21126
BEIDOU 18 (C57)         
1 40748U 15037A   21003.52653704 -.00000057  00000-0  00000-0 0  9990
2 40748  55.9435   9.6047 0003978 317.7517 234.6158  1.86233435 37048
BEIDOU 19 (C58)         
1 40749U 15037B   21003.72365198 -.00000057  00000-0  00000-0 0  9990
2 40749  55.9474   9.5869 0006854 294.2560 167.0808  1.86232165 37046
BEIDOU 20 (C18)         
1 40938U 15053A   21003.73174557 -.00000128  00000-0  00000-0 0  9995
2 40938  52.3184 281.9476 0046417 191.9648 349.6749  1.00273684 19403
BEIDOU IGSO-6 (C13)     
1 41434U 16021A   21003.90343769 -.00000141  00000-0  00000-0 0  9990
2 41434  57.3245  58.3832 0043049 209.6137 254.2452  1.00260807 17524
BEIDOU-2 G7 (C03)       
1 41586U 16037A   21003.81785435 -.00000345  00000-0  00000-0 0  9991
2 41586   1.9076  69.0976 0008315 359.2663  80.1052  1.00277206 16836
BEIDOU-3 M1 (C19)       
1 43001U 17069A   21003.73089039  .00000044  00000-0  00000-0 0  9994
2 43001  55.2926 129.4689 0007603 285.3437 127.7535  1.86231718 21534
BEIDOU-3 M2 (C20)       
1 43002U 17069B   21003.54151874  .00000044  00000-0  00000-0 0  9991
2 43002  55.2911 129.5099 0006350 315.0526  14.7293  1.86231448 21517
BEIDOU-3 M3 (C27)       
1 43107U 18003A   21003.65075686 -.00000059  00000-0  00000-0 0  9991
2 43107  55.3824  10.7542 0003270  26.8411 182.0516  1.86232526 20287
BEIDOU-3 M4 (C28)       
1 43108U 18003B   21003.54727843 -.00000059  00000-0  00000-0 0  9999
2 43108  55.3766  10.7489 0004704 249.4167 295.2817  1.86232594 20283
BEIDOU-3 M5 (C21)       
1 43207U 18018A   21003.71918520  .00000045  00000-0  00000-0 0  9992
2 43207  55.2510 129.6015 0004684 342.9385  17.0233  1.86231345 19678
BEIDOU-3 M6 (C22)       
1 43208U 18018B   21003.24898486  .00000043  00000-0  00000-0 0  9997
2 43208  55.2502 129.6223 0006294 299.0532  60.8594  1.86231476 19666
BEIDOU-3 M7 (C29)       
1 43245U 18029A   21003.78596402 -.00000059  00000-0  00000-0 0  9990
2 43245  55.3219   8.5508 0001796 270.9150 298.7403  1.86232634 18825
BEIDOU-3 M8 (C30)       
1 43246U 18029B   21003.66473507 -.00000059  00000-0  10000-3 0  9992
2 43246  55.3186   8.5849 0004864 325.4462 208.9965  1.86233091 18811
BEIDOU IGSO-7 (C16)     
1 43539U 18057A   21003.77859289 -.00000070  00000-0  00000-0 0  9994
2 43539  55.0496 180.4375 0030950 211.9085 106.1827  1.00263890  9199
BEIDOU-3 M9 (C23)       
1 43581U 18062A   21003.50467528  .00000041  00000-0  00000-0 0  9996
2 43581  54.4717 250.2636 0003677 301.6077 335.2158  1.86231873 16555
BEIDOU-3 M10 (C24)      
1 43582U 18062B   21003.76683457  .00000040  00000-0  00000-0 0  9995
2 43582  54.4710 250.2431 0006423 359.6361 184.1435  1.86232352 16566
BEIDOU-3 M11 (C25)      
1 43602U 18067A   21003.69931383  .00000043  00000-0  00000-0 0  9992
2 43602  54.5445 248.8141 0007505 358.2661 182.7566  1.86231544 16051
BEIDOU-3 M12 (C26)      
1 43603U 18067B   21003.83322124  .00000042  00000-0  00000-0 0  9995
2 43603  54.5418 248.7779 0004827 351.5499 189.7473  1.86231492 16075
BEIDOU-3 M13 (C32)      
1 43622U 18072A   21003.52614823  .00000043  00000-0  00000-0 0  9999
2 43622  55.2153 129.1816 0004434 278.3184  87.4891  1.86231592 15589
BEIDOU-3 M14 (C33)      
1 43623U 18072B   21003.51989064  .00000043  00000-0  00000-0 0  9991
2 43623  55.2172 129.1736 0002973 319.0450 132.8004  1.86231586 15581
BEIDOU-3 M15 (C34)      
1 43647U 18078A   21003.76696443 -.00000059  00000-0  10000-3 0  9998
2 43647  55.2137   8.7552 0006852 336.0131 176.6460  1.86232970 15097
BEIDOU-3 M16 (C35)      
1 43648U 18078B   21003.90794926 -.00000059  00000-0  10000-3 0  9990
2 43648  55.2099   8.7574 0004530 338.5948 177.3284  1.86232499 15114
BEIDOU-3 G1 (C59)       
1 43683U 18085A   21003.93934479 -.00000267  00000-0  00000-0 0  9996
2 43683   1.3489 243.7328 0004364  11.2069 327.0747  1.00271310  8100
BEIDOU-3 M17 (C36)      
1 43706U 18093A   21003.57274703  .00000041  00000-0  00000-0 0  9997
2 43706  54.5519 250.1073 0009071 278.8142 268.6127  1.86231909 14453
BEIDOU-3 M18 (C37)      
1 43707U 18093B   21003.57237279  .00000041  00000-0  00000-0 0  9995
2 43707  54.5516 250.0959 0008532 304.6493 333.2278  1.86232160 14457
BEIDOU-3 IGSO-1 (C38)   
1 44204U 19023A   21003.98832997 -.00000211  00000-0  00000-0 0  9995
2 44204  55.7817  58.7135 0017926 200.4760 313.7963  1.00289022  6408
BEIDOU-2 G8             
1 44231U 19027A   21003.87271642 -.00000238  00000-0  00000-0 0  9990
2 44231   0.5416 308.4148 0007543 277.2687 336.6683  1.00266563  6121
BEIDOU-3 IGSO-2 (C39)   
1 44337U 19035A   21003.85105694 -.00000062  00000-0  00000-0 0  9992
2 44337  55.0833 176.4826 0016465 183.8683 157.0925  1.00280543  5737
BEIDOU-3 M23 (C45)      
1 44542U 19061A   21003.64691413  .00000041  00000-0  10000-3 0  9995
2 44542  54.7758 250.1415 0009136 334.5921 306.8414  1.86231622  8714
BEIDOU-3 M24 (C46)      
1 44543U 19061B   21003.78192627  .00000040  00000-0  10000-3 0  9993
2 44543  54.7744 250.1085 0006395 328.4232 314.1644  1.86231935  8729
BEIDOU-3 IGSO-3         
1 44709U 19073A   21002.78747813 -.00000168  00000-0  00000-0 0  9990
2 44709  58.1004 301.8594 0020057 197.2499 355.1373  1.00273680  4489
BEIDOU-3 M21            
1 44793U 19078A   21003.26139338 -.00000060  00000-0  10000-3 0  9994
2 44793  55.0629   8.8581 0006611 342.6963 145.6501  1.86232434  7577
BEIDOU-3 M22            
1 44794U 19078B   21003.31687575 -.00000060  00000-0  10000-3 0  9992
2 44794  55.0370   8.8583 0004746 333.3510 102.8594  1.86233108  7571
BEIDOU-3 M19            
1 44864U 19090A   21003.55810877  .00000044  00000-0  00000-0 0  9990
2 44864  55.1509 129.4202 0014286 259.9151 172.6648  1.86231789  7169
BEIDOU-3 M20            
1 44865U 19090B   21003.47169038  .00000044  00000-0  00000-0 0  9998
2 44865  55.1523 129.4541 0012705 277.6105 186.9585  1.86231738  7142
BEIDOU-3 G2             
1 45344U 20017A   21003.86423838 -.00000129  00000-0  00000-0 0  9991
2 45344   2.6557 332.3844 0001303 338.6571 183.8122  1.00270270  3304
BEIDOU-3 G3             
1 45807U 20040A   21003.92098075 -.00000342  00000-0  00000-0 0  9996
2 45807   2.6628 298.4769 0010467  10.7599 236.5583  1.00276330  2123
